[{"OBJECT_NAME":"STARLINK-32173","OBJECT_ID":"2024-150D","EPOCH":"2026-03-09T21:16:12.246240","MEAN_MOTION":15.30194091,"ECCENTRICITY":0.00015628,"INCLINATION":53.1595,"RA_OF_ASC_NODE":305.9594,"ARG_OF_PERICENTER":98.6981,"MEAN_ANOMALY":261.4197,"EPHEMERIS_TYPE":0,"CLASSIFICATION_TYPE":"U","NORAD_CAT_ID":60586,"ELEMENT_SET_NO":999,"REV_AT_EPOCH":8807,"BSTAR":-2.4970163e-5,"MEAN_MOTION_DOT":-1.099e-5,"MEAN_MOTION_DDOT":0},{"OBJECT_NAME":"BANDWAGON-2 OBJECT D","OBJECT_ID":"2024-247D","EPOCH":"2026-03-09T12:32:33.670752","MEAN_MOTION":15.29076102,"ECCENTRICITY":0.00034883,"INCLINATION":44.9954,"RA_OF_ASC_NODE":115.671,"ARG_OF_PERICENTER":351.1453,"MEAN_ANOMALY":8.9368,"EPHEMERIS_TYPE":0,"CLASSIFICATION_TYPE":"U","NORAD_CAT_ID":62380,"ELEMENT_SET_NO":999,"REV_AT_EPOCH":6773,"BSTAR":0.00040119131,"MEAN_MOTION_DOT":0.00011259,"MEAN_MOTION_DDOT":0}]
